STARLINK-30315          
1 57708U 23129L   26068.56156565  .00098995  00000+0  35796-2 0  9996
2 57708  43.0003 118.5703 0001410 274.4089  85.6601 15.27390045140663
COSMOS 2576             
1 59773U 24092A   26068.82603826  .00015211  00000+0  56283-3 0  9991
2 59773  97.4253 186.0053 0005946 159.7731 200.3745 15.27760963101271
